[{"OBJECT_NAME":"STARLINK-30041","OBJECT_ID":"2023-119M","EPOCH":"2026-03-09T22:00:01.999584","MEAN_MOTION":15.15940564,"ECCENTRICITY":0.00012576,"INCLINATION":43.0013,"RA_OF_ASC_NODE":79.6987,"ARG_OF_PERICENTER":273.3411,"MEAN_ANOMALY":241.7822,"EPHEMERIS_TYPE":0,"CLASSIFICATION_TYPE":"U","NORAD_CAT_ID":57613,"ELEMENT_SET_NO":999,"REV_AT_EPOCH":562,"BSTAR":0.06109031,"MEAN_MOTION_DOT":0.01292259,"MEAN_MOTION_DDOT":0},{"OBJECT_NAME":"OBJECT C","OBJECT_ID":"2022-089C","EPOCH":"2026-03-09T17:47:21.026976","MEAN_MOTION":15.35935984,"ECCENTRICITY":0.0003051,"INCLINATION":97.2267,"RA_OF_ASC_NODE":166.2276,"ARG_OF_PERICENTER":174.1985,"MEAN_ANOMALY":185.9295,"EPHEMERIS_TYPE":0,"CLASSIFICATION_TYPE":"U","NORAD_CAT_ID":64627,"ELEMENT_SET_NO":999,"REV_AT_EPOCH":3935,"BSTAR":0.00035082,"MEAN_MOTION_DOT":0.000122,"MEAN_MOTION_DDOT":0}]
